{
  "norad_id": 59572,
  "name": "STARLINK-31666",
  "history": [
    {
      "epoch": "2026-03-28T12:36:32.344704Z",
      "apogee_km": 484.3195469208813,
      "perigee_km": 481.7260285211223,
      "latitude_deg": -7.191785261769824e-06,
      "longitude_deg": -119.42734564735332,
      "height_km": 482.78684308857277,
      "semi_major_axis_km": 6861.1597877210015,
      "eccentricity": 0.000189,
      "inclination_deg": 43.0047,
      "raan_deg": 255.652,
      "arg_perigee_deg": 270.5992,
      "mean_anomaly_deg": 89.4643,
      "mean_motion_rev_day": 15.27588786
    },
    {
      "epoch": "2026-03-30T03:50:26.083104Z",
      "apogee_km": 484.3510858848522,
      "perigee_km": 481.70130465883904,
      "latitude_deg": 3.582844792963709e-05,
      "longitude_deg": 1.2559064162229252,
      "height_km": 482.67230649380883,
      "semi_major_axis_km": 6861.163195271845,
      "eccentricity": 0.0001931,
      "inclination_deg": 43.0054,
      "raan_deg": 246.4203,
      "arg_perigee_deg": 275.7014,
      "mean_anomaly_deg": 84.3618,
      "mean_motion_rev_day": 15.27587648
    },
    {
      "epoch": "2026-03-30T10:07:03.919296Z",
      "apogee_km": 484.06692969815504,
      "perigee_km": 481.9963662235741,
      "latitude_deg": 3.6942005358632283e-06,
      "longitude_deg": -94.63887283145402,
      "height_km": 482.97305714081904,
      "semi_major_axis_km": 6861.168647960864,
      "eccentricity": 0.00015089,
      "inclination_deg": 43.0018,
      "raan_deg": 244.941,
      "arg_perigee_deg": 260.8597,
      "mean_anomaly_deg": 99.2084,
      "mean_motion_rev_day": 15.27585827
    },
    {
      "epoch": "2026-03-30T19:32:00.158208Z",
      "apogee_km": 484.1123767795907,
      "perigee_km": 481.86192805759674,
      "latitude_deg": 3.398857364975626e-05,
      "longitude_deg": 121.52614527264501,
      "height_km": 482.9556759310717,
      "semi_major_axis_km": 6861.124152418593,
      "eccentricity": 0.000164,
      "inclination_deg": 43.0038,
      "raan_deg": 242.727,
      "arg_perigee_deg": 260.2139,
      "mean_anomaly_deg": 99.8528,
      "mean_motion_rev_day": 15.27600687
    },
    {
      "epoch": "2026-03-31T11:13:33.652704Z",
      "apogee_km": 484.3327075538018,
      "perigee_km": 481.5668662482658,
      "latitude_deg": 4.263312707385488e-06,
      "longitude_deg": -118.1990196679009,
      "height_km": 482.78587066930004,
      "semi_major_axis_km": 6861.0867869010335,
      "eccentricity": 0.00020156,
      "inclination_deg": 43.0053,
      "raan_deg": 239.0359,
      "arg_perigee_deg": 267.583,
      "mean_anomaly_deg": 92.4791,
      "mean_motion_rev_day": 15.27613166
    },
    {
      "epoch": "2026-04-01T10:45:55.026720Z",
      "apogee_km": 484.46560064379537,
      "perigee_km": 481.697785023106,
      "latitude_deg": -3.090740183129084e-05,
      "longitude_deg": -117.79543776083179,
      "height_km": 482.9817520214136,
      "semi_major_axis_km": 6861.21869283345,
      "eccentricity": 0.0002017,
      "inclination_deg": 43.0038,
      "raan_deg": 233.4953,
      "arg_perigee_deg": 264.923,
      "mean_anomaly_deg": 95.1391,
      "mean_motion_rev_day": 15.27569114
    },
    {
      "epoch": "2026-04-02T10:18:15.900480Z",
      "apogee_km": 484.42643504020816,
      "perigee_km": 481.6932086742536,
      "latitude_deg": 2.5529073404699378e-05,
      "longitude_deg": -117.38856838606775,
      "height_km": 482.8970969642533,
      "semi_major_axis_km": 6861.19682185723,
      "eccentricity": 0.00019918,
      "inclination_deg": 43.003,
      "raan_deg": 227.9558,
      "arg_perigee_deg": 267.4927,
      "mean_anomaly_deg": 92.5697,
      "mean_motion_rev_day": 15.27576418
    }
  ]
}